NORAD_CAT_ID,OBJECT_NAME,OBJECT_TYPE,EPOCH,MEAN_MOTION,ECCENTRICITY,INCLINATION,RA_OF_ASC_NODE,ARG_OF_PERICENTER,MEAN_ANOMALY,BSTAR,MEAN_MOTION_DOT,MEAN_MOTION_DDOT,TLE_LINE0,TLE_LINE1,TLE_LINE2,SEMIMAJOR_AXIS,PERIOD,APOGEE,PERIGEE,DECAYED
53743.0,STARLINK-4645,PAYLOAD,2023-12-29 03:04:54,15.08849123,0.0001757,53.2175,262.5561,82.7327,277.3865,5.1981e-08,-2.87e-06,0.0,0 STARLINK-4645,1 53743U 22107AV  23363.12841289 -.00000287  00000-0  51981-7 0  9995,2 53743  53.2175 262.5561 0001757  82.7327 277.3865 15.08849123 72809,6917.853,95.437,540.933,538.502,0.0
53743.0,STARLINK-4645,PAYLOAD,2023-12-29 22:09:33,15.08834211,0.0001768,53.2182,258.9871,95.2673,264.8521,-1.0361e-05,-4.53e-06,0.0,0 STARLINK-4645,1 53743U 22107AV  23363.92330467 -.00000453  00000-0 -10361-4 0  9994,2 53743  53.2182 258.9871 0001768  95.2673 264.8521 15.08834211 73707,6917.898,95.438,540.986,538.54,0.0
53743.0,STARLINK-4645,PAYLOAD,2023-12-29 23:44:56,15.08836057,0.0001697,53.217,258.6912,105.4883,254.6297,1.0793e-05,-1.16e-06,0.0,0 STARLINK-4645,1 53743U 22107AV  23363.98954212 -.00000116  00000-0  10793-4 0  9994,2 53743  53.2170 258.6912 0001697 105.4883 254.6297 15.08836057 72936,6917.892,95.438,540.931,538.583,0.0
53743.0,STARLINK-4645,PAYLOAD,2023-12-30 22:00:19,15.08850608,0.0001501,53.2164,254.5318,91.0821,269.0343,9.5886e-05,1.239e-05,0.0,0 STARLINK-4645,1 53743U 22107AV  23364.91689213  .00001239  00000-0  95886-4 0  9996,2 53743  53.2164 254.5318 0001501  91.0821 269.0343 15.08850608 73852,6917.848,95.437,540.751,538.675,0.0
53743.0,STARLINK-4645,PAYLOAD,2023-12-31 02:46:28,15.08853212,0.0001687,53.2156,253.6389,93.0254,267.0931,0.00026151,3.878e-05,0.0,0 STARLINK-4645,1 53743U 22107AV  23365.11561290  .00003878  00000-0  26151-3 0  9992,2 53743  53.2156 253.6389 0001687  93.0254 267.0931 15.08853212 73101,6917.84,95.437,540.872,538.538,0.0
53743.0,STARLINK-4645,PAYLOAD,2023-12-31 20:15:43,15.08842358,0.0001909,53.2163,250.364,116.1576,243.9612,0.00010715,1.418e-05,0.0,0 STARLINK-4645,1 53743U 22107AV  23365.84425717  .00001418  00000-0  10715-3 0  9992,2 53743  53.2163 250.3640 0001909 116.1576 243.9612 15.08842358 73214,6917.873,95.437,541.059,538.418,0.0
53743.0,STARLINK-4645,PAYLOAD,2023-12-31 21:51:07,15.08841647,0.0001586,53.2152,250.071,99.0836,261.0336,0.00010844,1.438e-05,0.0,0 STARLINK-4645,1 53743U 22107AV  23365.91049881  .00001438  00000-0  10844-3 0  9999,2 53743  53.2152 250.0710 0001586  99.0836 261.0336 15.08841647 74008,6917.875,95.437,540.838,538.643,0.0
53743.0,STARLINK-4645,PAYLOAD,2024-01-01 21:41:54,15.08845612,0.0001626,53.2161,245.6102,99.2599,260.8577,4.5938e-05,4.43e-06,0.0,0 STARLINK-4645,1 53743U 22107AV  24001.90409746  .00000443  00000-0  45938-4 0  9994,2 53743  53.2161 245.6102 0001626  99.2599 260.8577 15.08845612 74152,6917.863,95.437,540.853,538.603,0.0
53743.0,STARLINK-4645,PAYLOAD,2024-01-02 00:52:39,15.08850654,0.0001609,53.2161,245.0153,99.9071,260.2103,3.6116e-05,2.87e-06,0.0,0 STARLINK-4645,1 53743U 22107AV  24002.03657370  .00000287  00000-0  36116-4 0  9991,2 53743  53.2161 245.0153 0001609  99.9071 260.2103 15.08850654 73391,6917.848,95.437,540.826,538.6,0.0
53743.0,STARLINK-4645,PAYLOAD,2024-01-02 21:32:41,15.08838608,0.0001623,53.215,241.1499,99.7753,260.3422,2.356e-05,8.7e-07,0.0,0 STARLINK-4645,1 53743U 22107AV  24002.89769727  .00000087  00000-0  23560-4 0  9992,2 53743  53.2150 241.1499 0001623  99.7753 260.3422 15.08838608 74302,6917.885,95.438,540.872,538.627,0.0
53743.0,STARLINK-4645,PAYLOAD,2024-01-03 02:18:50,15.08841135,0.0001575,53.2159,240.2582,96.6856,263.4315,8.5108e-05,1.067e-05,0.0,0 STARLINK-4645,1 53743U 22107AV  24003.09641818  .00001067  00000-0  85108-4 0  9990,2 53743  53.2159 240.2582 0001575  96.6856 263.4315 15.08841135 73550,6917.877,95.437,540.831,538.652,0.0
53743.0,STARLINK-4645,PAYLOAD,2024-01-03 21:23:28,15.08839758,0.0001551,53.216,236.6892,93.2498,266.8672,4.4076e-05,4.14e-06,0.0,0 STARLINK-4645,1 53743U 22107AV  24003.89130083  .00000414  00000-0  44076-4 0  9999,2 53743  53.2160 236.6892 0001551  93.2498 266.8672 15.08839758 74455,6917.881,95.438,540.819,538.673,0.0
53743.0,STARLINK-4645,PAYLOAD,2024-01-04 14:52:42,15.08841518,0.0001455,53.2154,233.418,93.9579,266.1579,6.1212e-05,6.86e-06,0.0,0 STARLINK-4645,1 53743U 22107AV  24004.61993860  .00000686  00000-0  61212-4 0  9992,2 53743  53.2154 233.4180 0001455  93.9579 266.1579 15.08841518 74561,6917.876,95.437,540.747,538.734,0.0
53743.0,STARLINK-4645,PAYLOAD,2024-01-04 19:38:51,15.08843784,0.0001466,53.2154,232.5261,92.9221,267.1939,7.5385e-05,9.12e-06,0.0,0 STARLINK-4645,1 53743U 22107AV  24004.81865636  .00000912  00000-0  75385-4 0  9991,2 53743  53.2154 232.5261 0001466  92.9221 267.1939 15.08843784 73811,6917.869,95.437,540.748,538.72,0.0
53743.0,STARLINK-4645,PAYLOAD,2024-01-04 21:14:15,15.0884427,0.0001493,53.2154,232.2291,90.6558,269.4605,8.133e-05,1.007e-05,0.0,0 STARLINK-4645,1 53743U 22107AV  24004.88489594  .00001007  00000-0  81330-4 0  9996,2 53743  53.2154 232.2291 0001493  90.6558 269.4605 15.08844270 74603,6917.867,95.437,540.765,538.699,0.0
53743.0,STARLINK-4645,PAYLOAD,2024-01-05 00:25:01,15.08846628,0.0001528,53.2156,231.6344,89.9468,270.1699,0.00010036,1.31e-05,0.0,0 STARLINK-4645,1 53743U 22107AV  24005.01737376  .00001310  00000-0  10036-3 0  9997,2 53743  53.2156 231.6344 0001528  89.9468 270.1699 15.08846628 74620,6917.86,95.437,540.782,538.668,0.0
53743.0,STARLINK-4645,PAYLOAD,2024-01-05 21:05:01,15.0885193,0.0001562,53.2155,227.7694,86.3755,273.7416,0.00014799,2.069e-05,0.0,0 STARLINK-4645,1 53743U 22107AV  24005.87848645  .00002069  00000-0  14799-3 0  9995,2 53743  53.2155 227.7694 0001562  86.3755 273.7416 15.08851930 74753,6917.844,95.437,540.789,538.628,0.0
53743.0,STARLINK-4645,PAYLOAD,2024-01-06 19:20:26,15.08840081,0.00015,53.2156,223.6052,101.2057,258.9103,-1.6083e-05,-5.44e-06,0.0,0 STARLINK-4645,1 53743U 22107AV  24006.80585714 -.00000544  00000-0 -16083-4 0  9991,2 53743  53.2156 223.6052 0001500 101.2057 258.9103 15.08840081 74114,6917.88,95.438,540.783,538.707,0.0
53743.0,STARLINK-4645,PAYLOAD,2024-01-06 20:55:49,15.08837289,0.0001426,53.2152,223.307,98.0504,262.065,-4.173e-05,-9.52e-06,0.0,0 STARLINK-4645,1 53743U 22107AV  24006.87209910 -.00000952  00000-0 -41730-4 0  9999,2 53743  53.2152 223.3070 0001426  98.0504 262.0650 15.08837289 74900,6917.889,95.438,540.74,538.767,0.0
53743.0,STARLINK-4645,PAYLOAD,2024-01-07 00:06:35,15.08835567,0.0001503,53.2151,222.7136,91.713,268.4034,-4.4625e-05,-9.98e-06,0.0,0 STARLINK-4645,1 53743U 22107AV  24007.00458103 -.00000998  00000-0 -44625-4 0  9991,2 53743  53.2151 222.7136 0001503  91.7130 268.4034 15.08835567 74921,6917.894,95.438,540.799,538.719,0.0
53743.0,STARLINK-4645,PAYLOAD,2024-01-07 20:46:36,15.08842584,0.0001509,53.2157,218.848,95.8712,264.2452,-1.079e-05,-4.6e-06,0.0,0 STARLINK-4645,1 53743U 22107AV  24007.86569649 -.00000460  00000-0 -10790-4 0  9993,2 53743  53.2157 218.8480 0001509  95.8712 264.2452 15.08842584 75052,6917.872,95.437,540.781,538.694,0.0
53743.0,STARLINK-4645,PAYLOAD,2024-01-08 19:02:00,15.08835203,0.0001541,53.216,214.6844,90.235,269.8819,0.00014662,2.046e-05,0.0,0 STARLINK-4645,1 53743U 22107AV  24008.79306057  .00002046  00000-0  14662-3 0  9999,2 53743  53.2160 214.6844 0001541  90.2350 269.8819 15.08835203 74414,6917.895,95.438,540.826,538.694,0.0
53743.0,STARLINK-4645,PAYLOAD,2024-01-08 20:37:23,15.08836165,0.000155,53.216,214.3871,91.0676,269.0494,0.00015518,2.182e-05,0.0,0 STARLINK-4645,1 53743U 22107AV  24008.85930026  .00002182  00000-0  15518-3 0  9997,2 53743  53.2160 214.3871 0001550  91.0676 269.0494 15.08836165 75208,6917.892,95.438,540.829,538.685,0.0
53743.0,STARLINK-4645,PAYLOAD,2024-01-09 18:52:47,15.08839245,0.0001586,53.2162,210.2221,91.967,268.1503,8.3575e-05,1.042e-05,0.0,0 STARLINK-4645,1 53743U 22107AV  24009.78666288  .00001042  00000-0  83575-4 0  9999,2 53743  53.2162 210.2221 0001586  91.9670 268.1503 15.08839245 75344,6917.883,95.438,540.845,538.651,0.0
53743.0,STARLINK-4645,PAYLOAD,2024-01-10 17:08:11,15.08839605,0.000162,53.2163,206.0598,97.2303,262.8873,7.6689e-05,9.33e-06,0.0,0 STARLINK-4645,1 53743U 22107AV  24010.71402398  .00000933  00000-0  76689-4 0  9990,2 53743  53.2163 206.0598 0001620  97.2303 262.8873 15.08839605 74706,6917.882,95.438,540.867,538.626,0.0
53743.0,STARLINK-4645,PAYLOAD,2024-01-10 23:29:44,15.08841579,0.0001562,53.216,204.8703,88.196,271.9211,8.0602e-05,9.95e-06,0.0,0 STARLINK-4645,1 53743U 22107AV  24010.97898327  .00000995  00000-0  80602-4 0  9997,2 53743  53.2160 204.8703 0001562  88.1960 271.9211 15.08841579 75521,6917.876,95.437,540.821,538.66,0.0
53743.0,STARLINK-4645,PAYLOAD,2024-01-11 18:34:21,15.08842646,0.0001528,53.2159,201.3013,83.5099,276.6067,0.00011233,1.5e-05,0.0,0 STARLINK-4645,1 53743U 22107AV  24011.77386229  .00001500  00000-0  11233-3 0  9995,2 53743  53.2159 201.3013 0001528  83.5099 276.6067 15.08842646 74862,6917.872,95.437,540.794,538.68,0.0
53743.0,STARLINK-4645,PAYLOAD,2024-01-11 21:45:07,15.08843362,0.0001567,53.2149,200.7066,85.0049,275.1122,0.00012838,1.756e-05,0.0,0 STARLINK-4645,1 53743U 22107AV  24011.90634125  .00001756  00000-0  12838-3 0  9996,2 53743  53.2149 200.7066 0001567  85.0049 275.1122 15.08843362 75668,6917.87,95.437,540.819,538.651,0.0
53743.0,STARLINK-4645,PAYLOAD,2024-01-12 18:25:09,15.08841633,0.0001441,53.215,196.8409,109.7006,250.4142,-1.7699e-05,-5.7e-06,0.0,0 STARLINK-4645,1 53743U 22107AV  24012.76746587 -.00000570  00000-0 -17699-4 0  9993,2 53743  53.2150 196.8409 0001441 109.7006 250.4142 15.08841633 75010,6917.875,95.437,540.737,538.744,0.0
53743.0,STARLINK-4645,PAYLOAD,2024-01-13 11:54:23,15.08843147,0.0001846,53.2155,193.568,131.1993,228.9159,5.6796e-05,6.16e-06,0.0,0 STARLINK-4645,1 53743U 22107AV  24013.49610210  .00000616  00000-0  56796-4 0  9997,2 53743  53.2155 193.5680 0001846 131.1993 228.9159 15.08843147 75901,6917.871,95.437,541.013,538.459,0.0
